start=new Date('2022-08-04T00:00:00.000Z').valueOf();
sats=[{"ELEMENT_SET_NO":"999","FILE":"3528230","OBJECT_ID":"2021-017N","TIME_SYSTEM":"UTC","APOAPSIS":"548.015","MEAN_MOTION":"15.06391692","NORAD_CAT_ID":"47734","SITE":"AFETR","MEAN_ELEMENT_THEORY":"SGP4","SEMIMAJOR_AXIS":"6925.374","PERIOD":"95.593","RCS_SIZE":"LARGE","OBJECT_NAME":"STARLINK-2144","TLE_LINE2":"2 47734  53.0564 351.3608 0001121  88.9409 271.1708 15.06391692 79014","PERIAPSIS":"546.463","CENTER_NAME":"EARTH","OBJECT_TYPE":"PAYLOAD","CLASSIFICATION_TYPE":"U","TLE_LINE1":"1 47734U 21017N   22215.47545983  .00000766  00000-0  70336-4 0  9995","GP_ID":"209468844","REF_FRAME":"TEME","MEAN_MOTION_DOT":"0.00000766","EPHEMERIS_TYPE":"0","INCLINATION":"53.0564","ECCENTRICITY":"0.00011210","EPOCH":"2022-08-03T11:24:39.729312","LAUNCH_DATE":"2021-03-04","ARG_OF_PERICENTER":"88.9409","COUNTRY_CODE":"US","MEAN_ANOMALY":"271.1708","MEAN_MOTION_DDOT":"0.0000000000000","BSTAR":"0.00007033600000","DECAY_DATE":null,"REV_AT_EPOCH":"7901","RA_OF_ASC_NODE":"351.3608"},{"RCS_SIZE":"LARGE","TLE_LINE2":"2 47735  53.0548 276.4576 0001568  64.9920 295.1232 15.06394523 80695","CENTER_NAME":"EARTH","PERIAPSIS":"546.144","OBJECT_NAME":"STARLINK-2146","CLASSIFICATION_TYPE":"U","TLE_LINE1":"1 47735U 21017P   22215.49160663  .00001237  00000-0  10194-3 0  9995","OBJECT_TYPE":"PAYLOAD","GP_ID":"209494152","TIME_SYSTEM":"UTC","APOAPSIS":"548.316","MEAN_MOTION":"15.06394523","FILE":"3528364","OBJECT_ID":"2021-017P","ELEMENT_SET_NO":"999","MEAN_ELEMENT_THEORY":"SGP4","SITE":"AFETR","NORAD_CAT_ID":"47735","SEMIMAJOR_AXIS":"6925.365","PERIOD":"95.592","MEAN_ANOMALY":"295.1232","COUNTRY_CODE":"US","MEAN_MOTION_DDOT":"0.0000000000000","BSTAR":"0.00010194000000","DECAY_DATE":null,"REV_AT_EPOCH":"8069","RA_OF_ASC_NODE":"276.4576","EPHEMERIS_TYPE":"0","INCLINATION":"53.0548","REF_FRAME":"TEME","MEAN_MOTION_DOT":"0.00001237","ECCENTRICITY":"0.00015680","LAUNCH_DATE":"2021-03-04","EPOCH":"2022-08-03T11:47:54.812832","ARG_OF_PERICENTER":"64.9920"},{"LAUNCH_DATE":"2021-03-04","EPOCH":"2022-08-03T15:24:50.436288","ARG_OF_PERICENTER":"76.1716","EPHEMERIS_TYPE":"0","INCLINATION":"53.0560","MEAN_MOTION_DOT":"-0.00000038","REF_FRAME":"TEME","ECCENTRICITY":"0.00013070","BSTAR":"0.00001635400000","DECAY_DATE":null,"MEAN_MOTION_DDOT":"0.0000000000000","RA_OF_ASC_NODE":"340.6159","REV_AT_EPOCH":"7918","MEAN_ANOMALY":"283.9418","COUNTRY_CODE":"US","SEMIMAJOR_AXIS":"6925.378","PERIOD":"95.593","TIME_SYSTEM":"UTC","APOAPSIS":"548.148","MEAN_MOTION":"15.06390509","ELEMENT_SET_NO":"999","FILE":"3528477","OBJECT_ID":"2021-017Q","MEAN_ELEMENT_THEORY":"SGP4","SITE":"AFETR","NORAD_CAT_ID":"47736","TLE_LINE1":"1 47736U 21017Q   22215.64225042 -.00000038  00000-0  16354-4 0  9990","CLASSIFICATION_TYPE":"U","OBJECT_TYPE":"PAYLOAD","GP_ID":"209499205","RCS_SIZE":"LARGE","CENTER_NAME":"EARTH","PERIAPSIS":"546.337","TLE_LINE2":"2 47736  53.0560 340.6159 0001307  76.1716 283.9418 15.06390509 79183","OBJECT_NAME":"STARLINK-2147"},{"MEAN_ELEMENT_THEORY":"SGP4","SITE":"AFETR","NORAD_CAT_ID":"47737","MEAN_MOTION":"15.30355124","APOAPSIS":"476.096","TIME_SYSTEM":"UTC","OBJECT_ID":"2021-017R","FILE":"3528364","ELEMENT_SET_NO":"999","PERIOD":"94.096","SEMIMAJOR_AXIS":"6852.889","TLE_LINE2":"2 47737  53.0524 249.3352 0001959  47.0218 313.0945 15.30355124 81130","CENTER_NAME":"EARTH","PERIAPSIS":"473.411","OBJECT_NAME":"STARLINK-2148","RCS_SIZE":"LARGE","GP_ID":"209492702","CLASSIFICATION_TYPE":"U","TLE_LINE1":"1 47737U 21017R   22215.49908121  .00001976  00000-0  78475-4 0  9993","OBJECT_TYPE":"PAYLOAD","ECCENTRICITY":"0.00019590","EPHEMERIS_TYPE":"0","INCLINATION":"53.0524","REF_FRAME":"TEME","MEAN_MOTION_DOT":"0.00001976","ARG_OF_PERICENTER":"47.0218","LAUNCH_DATE":"2021-03-04","EPOCH":"2022-08-03T11:58:40.616544","MEAN_ANOMALY":"313.0945","COUNTRY_CODE":"US","RA_OF_ASC_NODE":"249.3352","REV_AT_EPOCH":"8113","MEAN_MOTION_DDOT":"0.0000000000000","DECAY_DATE":null,"BSTAR":"0.00007847500000"},{"NORAD_CAT_ID":"47738","SITE":"AFETR","MEAN_ELEMENT_THEORY":"SGP4","FILE":"3528477","OBJECT_ID":"2021-017S","ELEMENT_SET_NO":"999","MEAN_MOTION":"15.06402933","APOAPSIS":"548.060","TIME_SYSTEM":"UTC","PERIOD":"95.592","SEMIMAJOR_AXIS":"6925.340","OBJECT_NAME":"STARLINK-2149","TLE_LINE2":"2 47738  53.0556 340.3933 0001235  73.2047 286.9077 15.06402933 79192","CENTER_NAME":"EARTH","PERIAPSIS":"546.349","RCS_SIZE":"LARGE","GP_ID":"209499677","OBJECT_TYPE":"PAYLOAD","CLASSIFICATION_TYPE":"U","TLE_LINE1":"1 47738U 21017S   22215.74916586  .00002130  00000-0  16183-3 0  9996","ECCENTRICITY":"0.00012350","REF_FRAME":"TEME","MEAN_MOTION_DOT":"0.00002130","EPHEMERIS_TYPE":"0","INCLINATION":"53.0556","ARG_OF_PERICENTER":"73.2047","EPOCH":"2022-08-03T17:58:47.930304","LAUNCH_DATE":"2021-03-04","COUNTRY_CODE":"US","MEAN_ANOMALY":"286.9077","REV_AT_EPOCH":"7919","RA_OF_ASC_NODE":"340.3933","MEAN_MOTION_DDOT":"0.0000000000000","BSTAR":"0.00016183000000","DECAY_DATE":null},{"TLE_LINE2":"2 47739  53.0551   6.2357 0001464  89.3219 270.7938 15.06406338 79492","PERIAPSIS":"546.180","CENTER_NAME":"EARTH","OBJECT_NAME":"STARLINK-2150","RCS_SIZE":"LARGE","GP_ID":"209493652","CLASSIFICATION_TYPE":"U","TLE_LINE1":"1 47739U 21017T   22215.50540286 -.00002075  00000-0 -12042-3 0  9991","OBJECT_TYPE":"PAYLOAD","MEAN_ELEMENT_THEORY":"SGP4","NORAD_CAT_ID":"47739","SITE":"AFETR","MEAN_MOTION":"15.06406338","APOAPSIS":"548.208","TIME_SYSTEM":"UTC","OBJECT_ID":"2021-017T","FILE":"3528364","ELEMENT_SET_NO":"999","PERIOD":"95.592","SEMIMAJOR_AXIS":"6925.329","MEAN_ANOMALY":"270.7938","COUNTRY_CODE":"US","REV_AT_EPOCH":"7949","RA_OF_ASC_NODE":"6.2357","MEAN_MOTION_DDOT":"0.0000000000000","DECAY_DATE":null,"BSTAR":"-0.00012042000000","ECCENTRICITY":"0.00014640","INCLINATION":"53.0551","EPHEMERIS_TYPE":"0","REF_FRAME":"TEME","MEAN_MOTION_DOT":"-0.00002075","ARG_OF_PERICENTER":"89.3219","LAUNCH_DATE":"2021-03-04","EPOCH":"2022-08-03T12:07:46.807104"},{"REV_AT_EPOCH":"7905","RA_OF_ASC_NODE":"350.1213","DECAY_DATE":null,"BSTAR":"0.00002243500000","MEAN_MOTION_DDOT":"0.0000000000000","COUNTRY_CODE":"US","MEAN_ANOMALY":"275.3688","ARG_OF_PERICENTER":"84.7459","EPOCH":"2022-08-03T18:02:45.036960","LAUNCH_DATE":"2021-03-04","ECCENTRICITY":"0.00013840","MEAN_MOTION_DOT":"0.00000053","REF_FRAME":"TEME","EPHEMERIS_TYPE":"0","INCLINATION":"53.0569","GP_ID":"209499208","OBJECT_TYPE":"PAYLOAD","TLE_LINE1":"1 47740U 21017U   22215.75191015  .00000053  00000-0  22435-4 0  9992","CLASSIFICATION_TYPE":"U","OBJECT_NAME":"STARLINK-2152","PERIAPSIS":"546.288","CENTER_NAME":"EARTH","TLE_LINE2":"2 47740  53.0569 350.1213 0001384  84.7459 275.3688 15.06389202 79056","RCS_SIZE":"LARGE","SEMIMAJOR_AXIS":"6925.382","PERIOD":"95.593","SITE":"AFETR","NORAD_CAT_ID":"47740","MEAN_ELEMENT_THEORY":"SGP4","OBJECT_ID":"2021-017U","FILE":"3528477","ELEMENT_SET_NO":"999","APOAPSIS":"548.205","TIME_SYSTEM":"UTC","MEAN_MOTION":"15.06389202"},{"MEAN_MOTION_DDOT":"0.0000000000000","DECAY_DATE":null,"BSTAR":"0.00006334500000","RA_OF_ASC_NODE":"351.2490","REV_AT_EPOCH":"7965","COUNTRY_CODE":"US","MEAN_ANOMALY":"269.2771","EPOCH":"2022-08-03T12:01:49.341792","LAUNCH_DATE":"2021-03-04","ARG_OF_PERICENTER":"90.8364","REF_FRAME":"TEME","MEAN_MOTION_DOT":"0.00000662","EPHEMERIS_TYPE":"0","INCLINATION":"53.0564","ECCENTRICITY":"0.00012770","OBJECT_TYPE":"PAYLOAD","CLASSIFICATION_TYPE":"U","TLE_LINE1":"1 47741U 21017V   22215.50126553  .00000662  00000-0  63345-4 0  9992","GP_ID":"209493203","RCS_SIZE":"LARGE","OBJECT_NAME":"STARLINK-2154","TLE_LINE2":"2 47741  53.0564 351.2490 0001277  90.8364 269.2771 15.06389911 79653","PERIAPSIS":"546.360","CENTER_NAME":"EARTH","PERIOD":"95.593","SEMIMAJOR_AXIS":"6925.379","OBJECT_ID":"2021-017V","FILE":"3528364","ELEMENT_SET_NO":"999","APOAPSIS":"548.129","MEAN_MOTION":"15.06389911","TIME_SYSTEM":"UTC","SITE":"AFETR","NORAD_CAT_ID":"47741","MEAN_ELEMENT_THEORY":"SGP4"},{"SITE":"AFETR","NORAD_CAT_ID":"47742","MEAN_ELEMENT_THEORY":"SGP4","FILE":"3528489","OBJECT_ID":"2021-017W","ELEMENT_SET_NO":"999","MEAN_MOTION":"15.06397506","APOAPSIS":"548.130","TIME_SYSTEM":"UTC","PERIOD":"95.592","SEMIMAJOR_AXIS":"6925.356","OBJECT_NAME":"STARLINK-2156","TLE_LINE2":"2 47742  53.0560 340.2972 0001312  85.0958 275.0180 15.06397506 79195","PERIAPSIS":"546.313","CENTER_NAME":"EARTH","RCS_SIZE":"LARGE","GP_ID":"209499695","OBJECT_TYPE":"PAYLOAD","CLASSIFICATION_TYPE":"U","TLE_LINE1":"1 47742U 21017W   22215.71228140 -.00001145  00000-0 -57960-4 0  9996","ECCENTRICITY":"0.00013120","REF_FRAME":"TEME","MEAN_MOTION_DOT":"-0.00001145","EPHEMERIS_TYPE":"0","INCLINATION":"53.0560","ARG_OF_PERICENTER":"85.0958","EPOCH":"2022-08-03T17:05:41.112960","LAUNCH_DATE":"2021-03-04","COUNTRY_CODE":"US","MEAN_ANOMALY":"275.0180","RA_OF_ASC_NODE":"340.2972","REV_AT_EPOCH":"7919","MEAN_MOTION_DDOT":"0.0000000000000","BSTAR":"-0.00005796000000","DECAY_DATE":null},{"EPOCH":"2022-08-03T12:56:13.260768","LAUNCH_DATE":"2021-03-04","ARG_OF_PERICENTER":"78.7088","REF_FRAME":"TEME","MEAN_MOTION_DOT":"0.00001930","EPHEMERIS_TYPE":"0","INCLINATION":"53.0544","ECCENTRICITY":"0.00011480","MEAN_MOTION_DDOT":"0.0000000000000","DECAY_DATE":null,"BSTAR":"0.00014844000000","REV_AT_EPOCH":"7916","RA_OF_ASC_NODE":"341.0846","COUNTRY_CODE":"US","MEAN_ANOMALY":"281.4030","SEMIMAJOR_AXIS":"6925.343","PERIOD":"95.592","FILE":"3528419","ELEMENT_SET_NO":"999","OBJECT_ID":"2021-017X","APOAPSIS":"548.003","TIME_SYSTEM":"UTC","MEAN_MOTION":"15.06401897","SITE":"AFETR","NORAD_CAT_ID":"47743","MEAN_ELEMENT_THEORY":"SGP4","OBJECT_TYPE":"PAYLOAD","CLASSIFICATION_TYPE":"U","TLE_LINE1":"1 47743U 21017X   22215.53904237  .00001930  00000-0  14844-3 0  9998","GP_ID":"209498306","RCS_SIZE":"LARGE","OBJECT_NAME":"STARLINK-2157","TLE_LINE2":"2 47743  53.0544 341.0846 0001148  78.7088 281.4030 15.06401897 79168","PERIAPSIS":"546.413","CENTER_NAME":"EARTH"}];
